ORBCOMM FM115           
1 41186U 15081H   24345.38964802  .00001993  00000+0  43006-3 0  9990
2 41186  46.9967 217.0415 0001096 249.9958 110.0811 14.61784749480145
ORBCOMM FM108           
1 41187U 15081J   24345.50061999  .00003053  00000+0  70068-3 0  9997
2 41187  47.0040 277.6770 0002041 156.3480 203.7499 14.57578946479345
ORBCOMM FM117           
1 41188U 15081K   24344.30203337  .00003036  00000+0  69714-3 0  9996
2 41188  47.0006 282.1632 0002355 168.0215 192.0726 14.57572337479138
ORBCOMM FM116           
1 41189U 15081L   24345.45696654  .00002645  00000+0  61232-3 0  9994
2 41189  47.0024   6.5535 0003011 270.1191  89.9349 14.57555907478180
